start=new Date('2021-11-11T00:00:00.000Z').valueOf();
sats=[{"GP_ID":"189424520","CENTER_NAME":"EARTH","PERIAPSIS":"546.094","MEAN_MOTION_DOT":"0.00001116","MEAN_MOTION_DDOT":"0.0000000000000","TIME_SYSTEM":"UTC","ARG_OF_PERICENTER":"65.4836","ECCENTRICITY":"0.00016980","NORAD_CAT_ID":"47917","INCLINATION":"53.0563","RCS_SIZE":"LARGE","SEMIMAJOR_AXIS":"6925.405","OBJECT_NAME":"STARLINK-2397","PERIOD":"95.593","ELEMENT_SET_NO":"999","MEAN_ANOMALY":"294.6330","FILE":"3211038","REF_FRAME":"TEME","CLASSIFICATION_TYPE":"U","BSTAR":"0.00009385400000","EPOCH":"2021-11-10T21:38:28.447296","LAUNCH_DATE":"2021-03-14","MEAN_ELEMENT_THEORY":"SGP4","COUNTRY_CODE":"US","MEAN_MOTION":"15.06381576","TLE_LINE2":"2 47917  53.0563 163.5690 0001698  65.4836 294.6330 15.06381576 38053","OBJECT_ID":"2021-021BK","OBJECT_TYPE":"PAYLOAD","TLE_LINE1":"1 47917U 21021BK  21314.90171814  .00001116  00000-0  93854-4 0  9998","REV_AT_EPOCH":"3805","SITE":"AFETR","RA_OF_ASC_NODE":"163.5690","APOAPSIS":"548.446","DECAY_DATE":null,"EPHEMERIS_TYPE":"0"},{"RA_OF_ASC_NODE":"163.5248","EPHEMERIS_TYPE":"0","APOAPSIS":"548.310","DECAY_DATE":null,"SITE":"AFETR","OBJECT_TYPE":"PAYLOAD","TLE_LINE1":"1 47918U 21021BL  21314.90906643  .00003107  00000-0  22731-3 0  9992","REV_AT_EPOCH":"3808","MEAN_ELEMENT_THEORY":"SGP4","EPOCH":"2021-11-10T21:49:03.339552","LAUNCH_DATE":"2021-03-14","TLE_LINE2":"2 47918  53.0542 163.5248 0001640  74.9508 285.1663 15.06412850 38085","MEAN_MOTION":"15.06412850","OBJECT_ID":"2021-021BL","COUNTRY_CODE":"US","REF_FRAME":"TEME","CLASSIFICATION_TYPE":"U","FILE":"3211038","BSTAR":"0.00022731000000","SEMIMAJOR_AXIS":"6925.309","NORAD_CAT_ID":"47918","INCLINATION":"53.0542","RCS_SIZE":"LARGE","MEAN_ANOMALY":"285.1663","OBJECT_NAME":"STARLINK-2398","PERIOD":"95.591","ELEMENT_SET_NO":"999","ARG_OF_PERICENTER":"74.9508","ECCENTRICITY":"0.00016400","MEAN_MOTION_DDOT":"0.0000000000000","GP_ID":"189424747","CENTER_NAME":"EARTH","PERIAPSIS":"546.038","MEAN_MOTION_DOT":"0.00003107","TIME_SYSTEM":"UTC"},{"OBJECT_TYPE":"PAYLOAD","TLE_LINE1":"1 47919U 21021BM  21314.82705940  .00001073  00000-0  90953-4 0  9993","REV_AT_EPOCH":"3791","SITE":"AFETR","APOAPSIS":"548.209","DECAY_DATE":null,"EPHEMERIS_TYPE":"0","RA_OF_ASC_NODE":"173.8868","COUNTRY_CODE":"US","TLE_LINE2":"2 47919  53.0529 173.8868 0001381  83.6396 276.4750 15.06387247 37919","MEAN_MOTION":"15.06387247","OBJECT_ID":"2021-021BM","EPOCH":"2021-11-10T19:50:57.932160","LAUNCH_DATE":"2021-03-14","MEAN_ELEMENT_THEORY":"SGP4","OBJECT_NAME":"STARLINK-2405","PERIOD":"95.593","ELEMENT_SET_NO":"999","MEAN_ANOMALY":"276.4750","NORAD_CAT_ID":"47919","INCLINATION":"53.0529","RCS_SIZE":"LARGE","SEMIMAJOR_AXIS":"6925.388","BSTAR":"0.00009095300000","FILE":"3211038","REF_FRAME":"TEME","CLASSIFICATION_TYPE":"U","TIME_SYSTEM":"UTC","GP_ID":"189424945","PERIAPSIS":"546.296","MEAN_MOTION_DOT":"0.00001073","CENTER_NAME":"EARTH","MEAN_MOTION_DDOT":"0.0000000000000","ECCENTRICITY":"0.00013810","ARG_OF_PERICENTER":"83.6396"},{"RA_OF_ASC_NODE":"218.5490","EPHEMERIS_TYPE":"0","APOAPSIS":"548.267","DECAY_DATE":null,"SITE":"AFETR","OBJECT_TYPE":"PAYLOAD","REV_AT_EPOCH":"3659","TLE_LINE1":"1 47977U 21024A   21314.90214710  .00002336  00000-0  17559-3 0  9992","MEAN_ELEMENT_THEORY":"SGP4","EPOCH":"2021-11-10T21:39:05.509440","LAUNCH_DATE":"2021-03-24","MEAN_MOTION":"15.06419589","TLE_LINE2":"2 47977  53.0535 218.5490 0001608  76.8763 283.2405 15.06419589 36593","OBJECT_ID":"2021-024A","COUNTRY_CODE":"US","REF_FRAME":"TEME","CLASSIFICATION_TYPE":"U","FILE":"3211038","BSTAR":"0.00017559000000","SEMIMAJOR_AXIS":"6925.289","NORAD_CAT_ID":"47977","INCLINATION":"53.0535","RCS_SIZE":"LARGE","MEAN_ANOMALY":"283.2405","OBJECT_NAME":"STARLINK-2087","PERIOD":"95.591","ELEMENT_SET_NO":"999","ARG_OF_PERICENTER":"76.8763","ECCENTRICITY":"0.00016080","MEAN_MOTION_DDOT":"0.0000000000000","GP_ID":"189424527","CENTER_NAME":"EARTH","PERIAPSIS":"546.040","MEAN_MOTION_DOT":"0.00002336","TIME_SYSTEM":"UTC"},{"RA_OF_ASC_NODE":"228.4714","APOAPSIS":"548.358","DECAY_DATE":null,"EPHEMERIS_TYPE":"0","OBJECT_TYPE":"PAYLOAD","REV_AT_EPOCH":"3645","TLE_LINE1":"1 47978U 21024B   21314.92335423  .00002732  00000-0  20215-3 0  9993","SITE":"AFETR","EPOCH":"2021-11-10T22:09:37.805472","LAUNCH_DATE":"2021-03-24","MEAN_ELEMENT_THEORY":"SGP4","COUNTRY_CODE":"US","MEAN_MOTION":"15.06416705","TLE_LINE2":"2 47978  53.0526 228.4714 0001726  68.9774 291.1399 15.06416705 36450","OBJECT_ID":"2021-024B","FILE":"3211038","REF_FRAME":"TEME","CLASSIFICATION_TYPE":"U","BSTAR":"0.00020215000000","INCLINATION":"53.0526","NORAD_CAT_ID":"47978","RCS_SIZE":"LARGE","SEMIMAJOR_AXIS":"6925.297","OBJECT_NAME":"STARLINK-1647","ELEMENT_SET_NO":"999","PERIOD":"95.591","MEAN_ANOMALY":"291.1399","ARG_OF_PERICENTER":"68.9774","ECCENTRICITY":"0.00017260","GP_ID":"189424754","PERIAPSIS":"545.967","MEAN_MOTION_DOT":"0.00002732","CENTER_NAME":"EARTH","MEAN_MOTION_DDOT":"0.0000000000000","TIME_SYSTEM":"UTC"},{"TIME_SYSTEM":"UTC","MEAN_MOTION_DOT":"0.00006211","PERIAPSIS":"553.088","CENTER_NAME":"EARTH","GP_ID":"189424952","MEAN_MOTION_DDOT":"0.0000000000000","ECCENTRICITY":"0.00024630","ARG_OF_PERICENTER":"72.7667","ELEMENT_SET_NO":"999","PERIOD":"95.749","OBJECT_NAME":"STARLINK-2325","MEAN_ANOMALY":"165.8771","RCS_SIZE":"LARGE","INCLINATION":"53.0505","NORAD_CAT_ID":"47979","SEMIMAJOR_AXIS":"6932.931","BSTAR":"0.00046490000000","FILE":"3211038","CLASSIFICATION_TYPE":"U","REF_FRAME":"TEME","COUNTRY_CODE":"US","TLE_LINE2":"2 47979  53.0505 162.2670 0002463  72.7667 165.8771 15.03929452  3570","OBJECT_ID":"2021-024C","MEAN_MOTION":"15.03929452","LAUNCH_DATE":"2021-03-24","EPOCH":"2021-11-10T22:00:00.999936","MEAN_ELEMENT_THEORY":"SGP4","REV_AT_EPOCH":"357","TLE_LINE1":"1 47979U 21024C   21314.91667824  .00006211  00000-0  46490-3 0  9995","OBJECT_TYPE":"PAYLOAD","SITE":"AFETR","DECAY_DATE":null,"APOAPSIS":"556.503","EPHEMERIS_TYPE":"0","RA_OF_ASC_NODE":"162.2670"},{"MEAN_MOTION_DDOT":"0.0000000000000","PERIAPSIS":"543.231","MEAN_MOTION_DOT":"-0.00773306","CENTER_NAME":"EARTH","GP_ID":"189423776","TIME_SYSTEM":"UTC","ARG_OF_PERICENTER":"111.0128","ECCENTRICITY":"0.00014070","SEMIMAJOR_AXIS":"6922.340","RCS_SIZE":"LARGE","INCLINATION":"53.0547","NORAD_CAT_ID":"47980","MEAN_ANOMALY":"345.5386","ELEMENT_SET_NO":"999","PERIOD":"95.530","OBJECT_NAME":"STARLINK-2312","CLASSIFICATION_TYPE":"U","REF_FRAME":"TEME","FILE":"3211038","BSTAR":"-0.05398700000000","MEAN_ELEMENT_THEORY":"SGP4","LAUNCH_DATE":"2021-03-24","EPOCH":"2021-11-10T22:00:00.999936","MEAN_MOTION":"15.07382052","TLE_LINE2":"2 47980  53.0547 143.1046 0001407 111.0128 345.5386 15.07382052  3605","OBJECT_ID":"2021-024D","COUNTRY_CODE":"US","SITE":"AFETR","REV_AT_EPOCH":"360","TLE_LINE1":"1 47980U 21024D   21314.91667824 -.00773306  00000-0 -53987-1 0  9992","OBJECT_TYPE":"PAYLOAD","RA_OF_ASC_NODE":"143.1046","EPHEMERIS_TYPE":"0","DECAY_DATE":null,"APOAPSIS":"545.179"},{"RA_OF_ASC_NODE":"228.5252","DECAY_DATE":null,"APOAPSIS":"548.383","EPHEMERIS_TYPE":"0","TLE_LINE1":"1 47981U 21024E   21314.91227820  .00001292  00000-0  10564-3 0  9993","REV_AT_EPOCH":"3645","OBJECT_TYPE":"PAYLOAD","SITE":"AFETR","LAUNCH_DATE":"2021-03-24","EPOCH":"2021-11-10T21:53:40.836480","MEAN_ELEMENT_THEORY":"SGP4","COUNTRY_CODE":"US","MEAN_MOTION":"15.06405935","TLE_LINE2":"2 47981  53.0549 228.5252 0001715  78.2291 281.8891 15.06405935 36459","OBJECT_ID":"2021-024E","FILE":"3211038","CLASSIFICATION_TYPE":"U","REF_FRAME":"TEME","BSTAR":"0.00010564000000","RCS_SIZE":"LARGE","INCLINATION":"53.0549","NORAD_CAT_ID":"47981","SEMIMAJOR_AXIS":"6925.330","PERIOD":"95.592","ELEMENT_SET_NO":"999","OBJECT_NAME":"STARLINK-2303","MEAN_ANOMALY":"281.8891","ARG_OF_PERICENTER":"78.2291","ECCENTRICITY":"0.00017150","PERIAPSIS":"546.008","CENTER_NAME":"EARTH","MEAN_MOTION_DOT":"0.00001292","GP_ID":"189425027","MEAN_MOTION_DDOT":"0.0000000000000","TIME_SYSTEM":"UTC"},{"MEAN_ANOMALY":"23.4009","ELEMENT_SET_NO":"999","PERIOD":"95.702","OBJECT_NAME":"STARLINK-2317","SEMIMAJOR_AXIS":"6930.652","RCS_SIZE":"LARGE","NORAD_CAT_ID":"47982","INCLINATION":"53.0520","BSTAR":"0.00390290000000","CLASSIFICATION_TYPE":"U","REF_FRAME":"TEME","FILE":"3211038","TIME_SYSTEM":"UTC","MEAN_MOTION_DDOT":"0.0000000000000","MEAN_MOTION_DOT":"0.00055657","PERIAPSIS":"551.311","CENTER_NAME":"EARTH","GP_ID":"189425254","ECCENTRICITY":"0.00017400","ARG_OF_PERICENTER":"53.2888","SITE":"AFETR","REV_AT_EPOCH":"357","TLE_LINE1":"1 47982U 21024F   21314.91667824  .00055657  00000-0  39029-2 0  9996","OBJECT_TYPE":"PAYLOAD","EPHEMERIS_TYPE":"0","DECAY_DATE":null,"APOAPSIS":"553.723","RA_OF_ASC_NODE":"157.8998","OBJECT_ID":"2021-024F","TLE_LINE2":"2 47982  53.0520 157.8998 0001740  53.2888  23.4009 15.04671307  3577","MEAN_MOTION":"15.04671307","COUNTRY_CODE":"US","MEAN_ELEMENT_THEORY":"SGP4","LAUNCH_DATE":"2021-03-24","EPOCH":"2021-11-10T22:00:00.999936"},{"LAUNCH_DATE":"2021-03-24","EPOCH":"2021-11-10T22:00:00.999936","MEAN_ELEMENT_THEORY":"SGP4","COUNTRY_CODE":"US","TLE_LINE2":"2 47983  53.0464 133.4730 0008819 290.8675 206.6370 15.73230944  3677","OBJECT_ID":"2021-024G","MEAN_MOTION":"15.73230944","REV_AT_EPOCH":"367","TLE_LINE1":"1 47983U 21024G   21314.91667824 -.00029984  00000-0 -20904-3 0  9996","OBJECT_TYPE":"PAYLOAD","SITE":"AFETR","RA_OF_ASC_NODE":"133.4730","DECAY_DATE":null,"APOAPSIS":"355.605","EPHEMERIS_TYPE":"0","CENTER_NAME":"EARTH","PERIAPSIS":"343.739","MEAN_MOTION_DOT":"-0.00029984","GP_ID":"189425452","MEAN_MOTION_DDOT":"0.0000000000000","TIME_SYSTEM":"UTC","ARG_OF_PERICENTER":"290.8675","ECCENTRICITY":"0.00088190","RCS_SIZE":"LARGE","INCLINATION":"53.0464","NORAD_CAT_ID":"47983","SEMIMAJOR_AXIS":"6727.807","ELEMENT_SET_NO":"999","PERIOD":"91.531","OBJECT_NAME":"STARLINK-2289","MEAN_ANOMALY":"206.6370","FILE":"3211038","CLASSIFICATION_TYPE":"U","REF_FRAME":"TEME","BSTAR":"-0.00020904000000"}];
